start=new Date('2023-03-19T00:00:00.000Z').valueOf();
sats=[{"RA_OF_ASC_NODE":"205.7039","ARG_OF_PERICENTER":"46.6043","CLASSIFICATION_TYPE":"U","FILE":"3864479","EPOCH":"2023-03-18T20:00:48.504672","DECAY_DATE":null,"MEAN_MOTION_DDOT":"0.0000000000000","INCLINATION":"53.0520","MEAN_MOTION":"15.06442735","ECCENTRICITY":"0.00007450","OBJECT_ID":"2020-012AW","SITE":"AFETR","OBJECT_TYPE":"PAYLOAD","MEAN_ELEMENT_THEORY":"SGP4","MEAN_ANOMALY":"313.5008","TLE_LINE1":"1 45222U 20012AW  23077.83389473  .00030765  00000-0  20729-2 0  9997","COUNTRY_CODE":"US","GP_ID":"228400507","CENTER_NAME":"EARTH","SEMIMAJOR_AXIS":"6925.218","RCS_SIZE":"LARGE","LAUNCH_DATE":"2020-02-17","PERIOD":"95.589","REF_FRAME":"TEME","ELEMENT_SET_NO":"999","BSTAR":"0.00207290000000","EPHEMERIS_TYPE":"0","MEAN_MOTION_DOT":"0.00030765","APOAPSIS":"547.599","OBJECT_NAME":"STARLINK-1191","TIME_SYSTEM":"UTC","PERIAPSIS":"546.567","TLE_LINE2":"2 45222  53.0520 205.7039 0000745  46.6043 313.5008 15.06442735171586","NORAD_CAT_ID":"45222","REV_AT_EPOCH":"17158"},{"BSTAR":"0.00162320000000","EPHEMERIS_TYPE":"0","ELEMENT_SET_NO":"999","REF_FRAME":"TEME","PERIOD":"95.590","RCS_SIZE":"LARGE","LAUNCH_DATE":"2020-02-17","NORAD_CAT_ID":"45223","REV_AT_EPOCH":"17158","TLE_LINE2":"2 45223  53.0560 205.8952 0001093  95.1729 264.9385 15.06432732171586","APOAPSIS":"547.870","OBJECT_NAME":"STARLINK-1212","MEAN_MOTION_DOT":"0.00024000","PERIAPSIS":"546.356","TIME_SYSTEM":"UTC","INCLINATION":"53.0560","DECAY_DATE":null,"MEAN_MOTION_DDOT":"0.0000000000000","MEAN_MOTION":"15.06432732","ARG_OF_PERICENTER":"95.1729","RA_OF_ASC_NODE":"205.8952","EPOCH":"2023-03-18T18:55:44.135328","FILE":"3864479","CLASSIFICATION_TYPE":"U","MEAN_ELEMENT_THEORY":"SGP4","SEMIMAJOR_AXIS":"6925.248","GP_ID":"228400761","CENTER_NAME":"EARTH","COUNTRY_CODE":"US","MEAN_ANOMALY":"264.9385","TLE_LINE1":"1 45223U 20012AX  23077.78870527  .00024000  00000-0  16232-2 0  9996","ECCENTRICITY":"0.00010930","OBJECT_TYPE":"PAYLOAD","SITE":"AFETR","OBJECT_ID":"2020-012AX"},{"OBJECT_NAME":"STARLINK-1215","APOAPSIS":"547.922","MEAN_MOTION_DOT":"0.00030303","PERIAPSIS":"546.381","TIME_SYSTEM":"UTC","REV_AT_EPOCH":"17151","NORAD_CAT_ID":"45225","TLE_LINE2":"2 45225  53.0519 206.4151 0001113  99.1994 260.9121 15.06420227171514","RCS_SIZE":"LARGE","LAUNCH_DATE":"2020-02-17","EPHEMERIS_TYPE":"0","BSTAR":"0.00204340000000","ELEMENT_SET_NO":"999","REF_FRAME":"TEME","PERIOD":"95.591","ECCENTRICITY":"0.00011130","OBJECT_TYPE":"PAYLOAD","SITE":"AFETR","OBJECT_ID":"2020-012AZ","MEAN_ELEMENT_THEORY":"SGP4","SEMIMAJOR_AXIS":"6925.287","COUNTRY_CODE":"US","GP_ID":"228399516","CENTER_NAME":"EARTH","TLE_LINE1":"1 45225U 20012AZ  23077.67540524  .00030303  00000-0  20434-2 0  9999","MEAN_ANOMALY":"260.9121","ARG_OF_PERICENTER":"99.1994","RA_OF_ASC_NODE":"206.4151","EPOCH":"2023-03-18T16:12:35.012736","FILE":"3864479","CLASSIFICATION_TYPE":"U","INCLINATION":"53.0519","DECAY_DATE":null,"MEAN_MOTION_DDOT":"0.0000000000000","MEAN_MOTION":"15.06420227"},{"MEAN_ELEMENT_THEORY":"SGP4","COUNTRY_CODE":"US","GP_ID":"228400264","CENTER_NAME":"EARTH","SEMIMAJOR_AXIS":"6925.267","TLE_LINE1":"1 45226U 20012BA  23077.74912031  .00029869  00000-0  20142-2 0  9995","MEAN_ANOMALY":"267.9465","ECCENTRICITY":"0.00011530","SITE":"AFETR","OBJECT_TYPE":"PAYLOAD","OBJECT_ID":"2020-012BA","INCLINATION":"53.0517","MEAN_MOTION_DDOT":"0.0000000000000","DECAY_DATE":null,"MEAN_MOTION":"15.06426491","ARG_OF_PERICENTER":"92.1656","RA_OF_ASC_NODE":"206.0845","EPOCH":"2023-03-18T17:58:43.994784","FILE":"3864479","CLASSIFICATION_TYPE":"U","REV_AT_EPOCH":"17148","NORAD_CAT_ID":"45226","TLE_LINE2":"2 45226  53.0517 206.0845 0001153  92.1656 267.9465 15.06426491171484","MEAN_MOTION_DOT":"0.00029869","APOAPSIS":"547.931","OBJECT_NAME":"STARLINK-1217","PERIAPSIS":"546.334","TIME_SYSTEM":"UTC","ELEMENT_SET_NO":"999","BSTAR":"0.00201420000000","EPHEMERIS_TYPE":"0","PERIOD":"95.590","REF_FRAME":"TEME","RCS_SIZE":"LARGE","LAUNCH_DATE":"2020-02-17"},{"ARG_OF_PERICENTER":"99.6173","RA_OF_ASC_NODE":"205.9836","EPOCH":"2023-03-18T18:30:34.223616","FILE":"3864479","CLASSIFICATION_TYPE":"U","INCLINATION":"53.0517","MEAN_MOTION_DDOT":"0.0000000000000","DECAY_DATE":null,"MEAN_MOTION":"15.06434559","ECCENTRICITY":"0.00009800","SITE":"AFETR","OBJECT_TYPE":"PAYLOAD","OBJECT_ID":"2020-012BB","MEAN_ELEMENT_THEORY":"SGP4","CENTER_NAME":"EARTH","GP_ID":"228401007","COUNTRY_CODE":"US","SEMIMAJOR_AXIS":"6925.243","TLE_LINE1":"1 45227U 20012BB  23077.77122944  .00029616  00000-0  19969-2 0  9990","MEAN_ANOMALY":"260.4926","RCS_SIZE":"LARGE","LAUNCH_DATE":"2020-02-17","ELEMENT_SET_NO":"999","BSTAR":"0.00199690000000","EPHEMERIS_TYPE":"0","PERIOD":"95.590","REF_FRAME":"TEME","MEAN_MOTION_DOT":"0.00029616","APOAPSIS":"547.786","OBJECT_NAME":"STARLINK-1221","PERIAPSIS":"546.429","TIME_SYSTEM":"UTC","REV_AT_EPOCH":"17149","NORAD_CAT_ID":"45227","TLE_LINE2":"2 45227  53.0517 205.9836 0000980  99.6173 260.4926 15.06434559171491"},{"MEAN_MOTION_DDOT":"0.0000000000000","DECAY_DATE":null,"INCLINATION":"53.0532","MEAN_MOTION":"15.06427957","RA_OF_ASC_NODE":"205.6715","ARG_OF_PERICENTER":"90.4822","CLASSIFICATION_TYPE":"U","EPOCH":"2023-03-18T20:11:24.794880","FILE":"3864479","MEAN_ELEMENT_THEORY":"SGP4","TLE_LINE1":"1 45228U 20012BC  23077.84125920  .00027470  00000-0  18545-2 0  9991","MEAN_ANOMALY":"269.6298","SEMIMAJOR_AXIS":"6925.263","GP_ID":"228401262","COUNTRY_CODE":"US","CENTER_NAME":"EARTH","ECCENTRICITY":"0.00011440","OBJECT_ID":"2020-012BC","OBJECT_TYPE":"PAYLOAD","SITE":"AFETR","REF_FRAME":"TEME","PERIOD":"95.590","EPHEMERIS_TYPE":"0","BSTAR":"0.00185450000000","ELEMENT_SET_NO":"999","RCS_SIZE":"LARGE","LAUNCH_DATE":"2020-02-17","TLE_LINE2":"2 45228  53.0532 205.6715 0001144  90.4822 269.6298 15.06427957171470","NORAD_CAT_ID":"45228","REV_AT_EPOCH":"17147","OBJECT_NAME":"STARLINK-1222","APOAPSIS":"547.920","MEAN_MOTION_DOT":"0.00027470","TIME_SYSTEM":"UTC","PERIAPSIS":"546.336"},{"ELEMENT_SET_NO":"999","BSTAR":"0.00193920000000","EPHEMERIS_TYPE":"0","PERIOD":"95.590","REF_FRAME":"TEME","RCS_SIZE":"LARGE","LAUNCH_DATE":"2020-02-17","REV_AT_EPOCH":"17148","NORAD_CAT_ID":"45229","TLE_LINE2":"2 45229  53.0518 205.5357 0000480  59.3850 300.7186 15.06437741171489","MEAN_MOTION_DOT":"0.00028751","APOAPSIS":"547.430","OBJECT_NAME":"STARLINK-1226","PERIAPSIS":"546.765","TIME_SYSTEM":"UTC","INCLINATION":"53.0518","DECAY_DATE":null,"MEAN_MOTION_DDOT":"0.0000000000000","MEAN_MOTION":"15.06437741","ARG_OF_PERICENTER":"59.3850","RA_OF_ASC_NODE":"205.5357","FILE":"3864479","EPOCH":"2023-03-18T20:53:52.995264","CLASSIFICATION_TYPE":"U","MEAN_ELEMENT_THEORY":"SGP4","GP_ID":"228400016","CENTER_NAME":"EARTH","COUNTRY_CODE":"US","SEMIMAJOR_AXIS":"6925.233","MEAN_ANOMALY":"300.7186","TLE_LINE1":"1 45229U 20012BD  23077.87075226  .00028751  00000-0  19392-2 0  9992","ECCENTRICITY":"0.00004800","SITE":"AFETR","OBJECT_TYPE":"PAYLOAD","OBJECT_ID":"2020-012BD"},{"ECCENTRICITY":"0.00007470","OBJECT_TYPE":"PAYLOAD","SITE":"AFETR","OBJECT_ID":"2020-012BE","MEAN_ELEMENT_THEORY":"SGP4","SEMIMAJOR_AXIS":"6925.256","COUNTRY_CODE":"US","GP_ID":"228399764","CENTER_NAME":"EARTH","MEAN_ANOMALY":"304.1971","TLE_LINE1":"1 45230U 20012BE  23077.73437964  .00027003  00000-0  18233-2 0  9992","ARG_OF_PERICENTER":"55.9088","RA_OF_ASC_NODE":"206.1516","FILE":"3864479","EPOCH":"2023-03-18T17:37:30.400896","CLASSIFICATION_TYPE":"U","INCLINATION":"53.0519","DECAY_DATE":null,"MEAN_MOTION_DDOT":"0.0000000000000","MEAN_MOTION":"15.06430343","APOAPSIS":"547.638","OBJECT_NAME":"STARLINK-1227","MEAN_MOTION_DOT":"0.00027003","PERIAPSIS":"546.603","TIME_SYSTEM":"UTC","REV_AT_EPOCH":"17158","NORAD_CAT_ID":"45230","TLE_LINE2":"2 45230  53.0519 206.1516 0000747  55.9088 304.1971 15.06430343171589","RCS_SIZE":"LARGE","LAUNCH_DATE":"2020-02-17","BSTAR":"0.00182330000000","EPHEMERIS_TYPE":"0","ELEMENT_SET_NO":"999","REF_FRAME":"TEME","PERIOD":"95.590"},{"SEMIMAJOR_AXIS":"6925.210","CENTER_NAME":"EARTH","GP_ID":"228400508","COUNTRY_CODE":"US","MEAN_ANOMALY":"287.2110","TLE_LINE1":"1 45232U 20012BG  23077.67815483  .00030623  00000-0  20633-2 0  9992","MEAN_ELEMENT_THEORY":"SGP4","OBJECT_TYPE":"PAYLOAD","SITE":"AFETR","OBJECT_ID":"2020-012BG","ECCENTRICITY":"0.00014910","MEAN_MOTION":"15.06445064","INCLINATION":"53.0515","DECAY_DATE":null,"MEAN_MOTION_DDOT":"0.0000000000000","EPOCH":"2023-03-18T16:16:32.577312","FILE":"3864479","CLASSIFICATION_TYPE":"U","ARG_OF_PERICENTER":"72.9042","RA_OF_ASC_NODE":"206.3935","NORAD_CAT_ID":"45232","REV_AT_EPOCH":"17156","TLE_LINE2":"2 45232  53.0515 206.3935 0001491  72.9042 287.2110 15.06445064171560","PERIAPSIS":"546.043","TIME_SYSTEM":"UTC","APOAPSIS":"548.108","OBJECT_NAME":"STARLINK-1235","MEAN_MOTION_DOT":"0.00030623","BSTAR":"0.00206330000000","EPHEMERIS_TYPE":"0","ELEMENT_SET_NO":"999","REF_FRAME":"TEME","PERIOD":"95.589","LAUNCH_DATE":"2020-02-17","RCS_SIZE":"LARGE"},{"MEAN_ELEMENT_THEORY":"SGP4","CENTER_NAME":"EARTH","GP_ID":"228400762","COUNTRY_CODE":"US","SEMIMAJOR_AXIS":"6925.263","MEAN_ANOMALY":"244.2964","TLE_LINE1":"1 45233U 20012BH  23077.85784661  .00023712  00000-0  16042-2 0  9996","ECCENTRICITY":"0.00008950","SITE":"AFETR","OBJECT_TYPE":"PAYLOAD","OBJECT_ID":"2020-012BH","INCLINATION":"53.0532","MEAN_MOTION_DDOT":"0.0000000000000","DECAY_DATE":null,"MEAN_MOTION":"15.06427933","ARG_OF_PERICENTER":"115.8117","RA_OF_ASC_NODE":"225.5970","FILE":"3864479","EPOCH":"2023-03-18T20:35:17.947104","CLASSIFICATION_TYPE":"U","NORAD_CAT_ID":"45233","REV_AT_EPOCH":"17129","TLE_LINE2":"2 45233  53.0532 225.5970 0000895 115.8117 244.2964 15.06427933171294","MEAN_MOTION_DOT":"0.00023712","OBJECT_NAME":"STARLINK-1238","APOAPSIS":"547.748","PERIAPSIS":"546.508","TIME_SYSTEM":"UTC","ELEMENT_SET_NO":"999","BSTAR":"0.00160420000000","EPHEMERIS_TYPE":"0","PERIOD":"95.590","REF_FRAME":"TEME","RCS_SIZE":"LARGE","LAUNCH_DATE":"2020-02-17"}];
